STARS (KUKAI)           
1 33498U 09002G   26194.84248852  .00001624  00000+0  15066-3 0  9994
2 33498  98.1553 143.2437 0009834  82.9684 277.2654 14.95921292942467
KKS-1 (KISEKI)          
1 33499U 09002H   26194.83769865  .00000665  00000+0  88322-4 0  9996
2 33499  98.1175 117.7022 0007310 193.6951 166.4065 14.83187360940143
UK-DMC 2                
1 35683U 09041C   26194.86674730  .00000532  00000+0  84358-4 0  9993
2 35683  97.8861 329.1859 0001545  99.7563 260.3821 14.76093310910508
OCEANSAT-2              
1 35931U 09051A   26194.86385675 -.00000114  00000+0 -52168-4 0  9999
2 35931  98.2319 179.0519 0017256 157.3305 202.8627 13.99656168883068
SWISSCUBE               
1 35932U 09051B   26194.71417647  .00000487  00000+0  10573-3 0  9993
2 35932  98.4010 103.0624 0007797 122.9504 237.2447 14.62529232893033
BEESAT-1                
1 35933U 09051C   26194.73748186  .00000394  00000+0  88826-4 0  9995
2 35933  98.3937 102.6657 0006039 133.6539 226.5163 14.61760532893065
ITUPSAT1                
1 35935U 09051E   26194.68314044  .00000364  00000+0  85196-4 0  9997
2 35935  98.4020 101.7741 0007976 147.4965 212.6727 14.60477451892607
DMSP 5D-3 F18 (USA 210) 
1 35951U 09057A   26194.87159396  .00000161  00000+0  10630-3 0  9994
2 35951  98.9055 175.5849 0011138 169.1767 190.9648 14.14911100863366
PROBA-2                 
1 36037U 09059B   26194.51266359  .00000083  00000+0  29776-4 0  9996
2 36037  98.2458  17.5015 0012896 194.0219 166.0622 14.54873268885358
YAOGAN-7                
1 36110U 09069A   26194.69442023  .00000223  00000+0  38073-4 0  9998
2 36110  98.0035  80.3936 0023604 316.4079  43.5266 14.78034681893549
XIWANG-1 (HOPE-1)       
1 36122U 09072B   26194.84357238  .00000217  00000+0  68379-3 0  9999
2 36122 100.4029 148.2513 0007513 167.7258 192.4039 13.16440662796517
COSMOS 2463             
1 36519U 10017A   26194.54413064  .00000047  00000+0  35022-4 0  9998
2 36519  82.9583 230.3405 0037349  58.3625 105.8077 13.71667131811546
CARTOSAT-2B             
1 36795U 10035A   26194.86667203  .00000049  00000+0  13868-4 0  9991
2 36795  97.9947 245.2433 0012573 102.9282 257.3334 14.78615628863790
TISAT 1                 
1 36799U 10035E   26194.76217736  .00011528  00000+0  36768-3 0  9993
2 36799  98.0711 143.6911 0004388 122.4638 237.7026 15.32696096871770
YAOGAN-10               
1 36834U 10038A   26194.90357818  .00000930  00000+0  11421-3 0  9992
2 36834  97.8972 218.0944 0001597  84.7087  35.9467 14.85425815861172
SHIJIAN-6 04B (SJ-6 04B)
1 37180U 10051B   26194.85114586  .00000037  00000+0  80465-5 0  9993
2 37180  97.8738 200.5463 0007536 216.2799 143.7913 14.99383243859679
FENGYUN 3B              
1 37214U 10059A   26194.83296881 -.00000023  00000+0  11188-4 0  9997
2 37214  98.9615 240.9582 0023123 110.2177   0.5474 14.14847063811195
COSMO-SKYMED 4          
1 37216U 10060A   26194.84036209 -.00000039  00000+0  16968-5 0  9997
2 37216  97.8890  18.0548 0001503  84.9569 275.1816 14.82147588848512
O/OREOS (USA 219)       
1 37224U 10062C   26194.84908230  .00001132  00000+0  11239-3 0  9998
2 37224  71.9696  19.9384 0013908   7.7163 352.4219 14.93848747120629
RESOURCESAT-2           
1 37387U 11015A   26194.76410153  .00000030  00000+0  33701-4 0  9995
2 37387  98.7633 262.0207 0011518 175.1171 185.0120 14.21605668789958
YOUTHSAT                
1 37388U 11015B   26194.89519714  .00000072  00000+0  47768-4 0  9997
2 37388  98.3702 167.7477 0013187 263.4522 150.6040 14.25640303791442
APRIZESAT 6             
1 37793U 11044F   26194.70352876  .00000390  00000+0  62464-4 0  9996
2 37793  98.2340 105.7424 0043182   3.0266  54.5582 14.76955496801065
JUGNU                   
1 37839U 11058B   26194.06098558  .00000348  00000+0  42399-4 0  9993
2 37839  19.9592 151.2304 0018498   2.9049  74.5783 14.13783158762692
SRMSAT                  
1 37841U 11058D   26194.45621951  .00000344  00000+0  42889-4 0  9998
2 37841  19.9713 260.4725 0011810 132.1672 338.6137 14.11580880761533
SUOMI NPP               
1 37849U 11061A   26194.84325641  .00000000  00000+0  20893-4 0  9990
2 37849  98.7956 135.5380 0000691 222.5445 137.5678 14.19522417762224
YAOGAN-12               
1 37875U 11066B   26194.87537566  .00003982  00000+0  15319-3 0  9996
2 37875  97.1133 232.1906 0010910 125.8185 234.4070 15.26886079816119
